NORAD_CAT_ID,OBJECT_NAME,OBJECT_TYPE,EPOCH,MEAN_MOTION,ECCENTRICITY,INCLINATION,RA_OF_ASC_NODE,ARG_OF_PERICENTER,MEAN_ANOMALY,BSTAR,MEAN_MOTION_DOT,MEAN_MOTION_DDOT,TLE_LINE0,TLE_LINE1,TLE_LINE2,SEMIMAJOR_AXIS,PERIOD,APOGEE,PERIGEE,DECAYED
55304.0,STARLINK-5318,PAYLOAD,2023-12-31 20:06:49,14.98331017,0.0002322,69.9993,238.4519,261.9081,98.1815,-5.5254e-05,-7.52e-06,0.0,0 STARLINK-5318,1 55304U 23010AM  23365.83806948 -.00000752  00000-0 -55254-4 0  9999,2 55304  69.9993 238.4519 0002322 261.9081  98.1815 14.98331017 53302,6950.19,96.107,573.669,570.441,0.0
55304.0,STARLINK-5318,PAYLOAD,2023-12-31 21:42:57,14.98330999,0.0002489,69.9986,238.2829,265.3956,94.6918,-6.6659e-05,-8.88e-06,0.0,0 STARLINK-5318,1 55304U 23010AM  23365.90482976 -.00000888  00000-0 -66659-4 0  9999,2 55304  69.9986 238.2829 0002489 265.3956  94.6918 14.98330999 53627,6950.19,96.107,573.785,570.325,0.0
55304.0,STARLINK-5318,PAYLOAD,2024-01-01 20:08:49,14.98333476,0.0002633,69.9982,235.9254,270.1916,89.8941,3.3153e-05,3.03e-06,0.0,0 STARLINK-5318,1 55304U 23010AM  24001.83946380  .00000303  00000-0  33153-4 0  9996,2 55304  69.9982 235.9254 0002633 270.1916  89.8941 14.98333476 53456,6950.182,96.107,573.877,570.217,0.0
55304.0,STARLINK-5318,PAYLOAD,2024-01-01 21:44:57,14.98333145,0.0002638,69.9981,235.757,269.881,90.2047,2.9695e-05,2.61e-06,0.0,0 STARLINK-5318,1 55304U 23010AM  24001.90622394  .00000261  00000-0  29695-4 0  9999,2 55304  69.9981 235.7570 0002638 269.8810  90.2047 14.98333145 53778,6950.183,96.107,573.882,570.215,0.0
55304.0,STARLINK-5318,PAYLOAD,2024-01-02 00:57:13,14.98335871,0.0002588,69.9982,235.4204,268.9665,91.1197,6.1617e-05,6.42e-06,0.0,0 STARLINK-5318,1 55304U 23010AM  24002.03974079  .00000642  00000-0  61617-4 0  9997,2 55304  69.9982 235.4204 0002588 268.9665  91.1197 14.98335871 53798,6950.175,96.107,573.838,570.241,0.0
55304.0,STARLINK-5318,PAYLOAD,2024-01-02 20:10:50,14.98328796,0.0002379,69.9986,233.4005,258.4832,101.606,2.1682e-05,1.66e-06,0.0,0 STARLINK-5318,1 55304U 23010AM  24002.84086498  .00000166  00000-0  21682-4 0  9994,2 55304  69.9986 233.4005 0002379 258.4832 101.6060 14.98328796 53601,6950.197,96.107,573.715,570.408,0.0
55304.0,STARLINK-5318,PAYLOAD,2024-01-02 21:46:58,14.98328679,0.0002378,69.9986,233.2323,258.4787,101.6105,1.9777e-05,1.43e-06,0.0,0 STARLINK-5318,1 55304U 23010AM  24002.90762510  .00000143  00000-0  19777-4 0  9994,2 55304  69.9986 233.2323 0002378 258.4787 101.6105 14.98328679 53925,6950.197,96.107,573.715,570.409,0.0
55304.0,STARLINK-5318,PAYLOAD,2024-01-03 13:48:19,14.98331392,0.0002288,69.9987,231.5492,256.1495,103.9409,-4.4022e-05,-6.18e-06,0.0,0 STARLINK-5318,1 55304U 23010AM  24003.57522505 -.00000618  00000-0 -44022-4 0  9996,2 55304  69.9987 231.5492 0002288 256.1495 103.9409 14.98331392 54025,6950.189,96.107,573.644,570.463,0.0
55304.0,STARLINK-5318,PAYLOAD,2024-01-03 21:48:59,14.98329708,0.0002322,69.9986,230.7079,257.2344,102.8556,-5.9325e-05,-8.01e-06,0.0,0 STARLINK-5318,1 55304U 23010AM  24003.90902624 -.00000801  00000-0 -59325-4 0  9993,2 55304  69.9986 230.7079 0002322 257.2344 102.8556 14.98329708 54074,6950.194,96.107,573.673,570.445,0.0
55304.0,STARLINK-5318,PAYLOAD,2024-01-04 01:01:16,14.98328799,0.0002342,69.9985,230.3711,259.2657,100.8239,-6.8146e-05,-9.06e-06,0.0,0 STARLINK-5318,1 55304U 23010AM  24004.04254719 -.00000906  00000-0 -68146-4 0  9991,2 55304  69.9985 230.3711 0002342 259.2657 100.8239 14.98328799 53785,6950.197,96.107,573.689,570.434,0.0
55304.0,STARLINK-5318,PAYLOAD,2024-01-04 21:51:00,14.98331493,0.000255,69.9979,228.183,267.6316,92.4551,1.0777e-05,3.6e-07,0.0,0 STARLINK-5318,1 55304U 23010AM  24004.91042295  .00000036  00000-0  10777-4 0  9990,2 55304  69.9979 228.1830 0002550 267.6316  92.4551 14.98331493 54229,6950.188,96.107,573.826,570.281,0.0
55304.0,STARLINK-5318,PAYLOAD,2024-01-05 01:03:16,14.98332622,0.000258,69.9978,227.8461,269.6846,90.4017,2.2101e-05,1.71e-06,0.0,0 STARLINK-5318,1 55304U 23010AM  24005.04394181  .00000171  00000-0  22101-4 0  9993,2 55304  69.9978 227.8461 0002580 269.6846  90.4017 14.98332622 53934,6950.185,96.107,573.843,570.257,0.0
55304.0,STARLINK-5318,PAYLOAD,2024-01-05 13:52:21,14.98327207,0.000256,69.9978,226.4994,271.8469,88.2397,5.8454e-06,-2.3e-07,0.0,0 STARLINK-5318,1 55304U 23010AM  24005.57802587 -.00000023  00000-0  58454-5 0  9993,2 55304  69.9978 226.4994 0002560 271.8469  88.2397 14.98327207 54327,6950.202,96.107,573.846,570.287,0.0
55304.0,STARLINK-5318,PAYLOAD,2024-01-05 21:53:01,14.9832836,0.0002762,69.9978,225.6581,277.5924,82.4922,2.8683e-05,2.49e-06,0.0,0 STARLINK-5318,1 55304U 23010AM  24005.91182505  .00000249  00000-0  28683-4 0  9991,2 55304  69.9978 225.6581 0002762 277.5924  82.4922 14.98328360 54379,6950.198,96.107,573.983,570.143,0.0
55304.0,STARLINK-5318,PAYLOAD,2024-01-05 23:29:09,14.98328207,0.0002584,69.9979,225.4897,275.9529,84.1335,4.1483e-05,4.02e-06,0.0,0 STARLINK-5318,1 55304U 23010AM  24005.97858489  .00000402  00000-0  41483-4 0  9992,2 55304  69.9979 225.4897 0002584 275.9529  84.1335 14.98328207 54077,6950.198,96.107,573.859,570.268,0.0
55304.0,STARLINK-5318,PAYLOAD,2024-01-06 21:55:02,14.98329941,0.0002546,69.9979,223.1335,267.0523,93.0344,-5.7801e-06,-1.62e-06,0.0,0 STARLINK-5318,1 55304U 23010AM  24006.91322423 -.00000162  00000-0 -57801-5 0  9998,2 55304  69.9979 223.1335 0002546 267.0523  93.0344 14.98329941 54528,6950.193,96.107,573.828,570.289,0.0
55304.0,STARLINK-5318,PAYLOAD,2024-01-06 23:31:10,14.98330423,0.0002566,69.9979,222.9651,267.8736,92.2129,-5.6679e-06,-1.61e-06,0.0,0 STARLINK-5318,1 55304U 23010AM  24006.97998387 -.00000161  00000-0 -56679-5 0  9993,2 55304  69.9979 222.9651 0002566 267.8736  92.2129 14.98330423 54228,6950.192,96.107,573.84,570.273,0.0
55304.0,STARLINK-5318,PAYLOAD,2024-01-07 21:57:03,14.98330817,0.0002455,69.9982,220.6087,263.8363,96.2516,6.4505e-06,-1.6e-07,0.0,0 STARLINK-5318,1 55304U 23010AM  24007.91462260 -.00000016  00000-0  64505-5 0  9999,2 55304  69.9982 220.6087 0002455 263.8363  96.2516 14.98330817 54679,6950.19,96.107,573.762,570.349,0.0
55304.0,STARLINK-5318,PAYLOAD,2024-01-07 23:33:11,14.98329687,0.0002387,69.9982,220.4404,259.3742,100.7148,2.5309e-05,2.09e-06,0.0,0 STARLINK-5318,1 55304U 23010AM  24007.98138272  .00000209  00000-0  25309-4 0  9990,2 55304  69.9982 220.4404 0002387 259.3742 100.7148 14.98329687 54377,6950.194,96.107,573.718,570.4,0.0
55304.0,STARLINK-5318,PAYLOAD,2024-01-08 21:59:04,14.98327511,0.0002521,69.9979,218.0821,267.5195,92.5676,-1.284e-05,-2.46e-06,0.0,0 STARLINK-5318,1 55304U 23010AM  24008.91602557 -.00000246  00000-0 -12840-4 0  9995,2 55304  69.9979 218.0821 0002521 267.5195  92.5676 14.98327511 54820,6950.201,96.107,573.818,570.313,0.0
55304.0,STARLINK-5318,PAYLOAD,2024-01-08 23:35:12,14.98328149,0.0002528,69.9979,217.9138,268.0163,92.0707,-6.2605e-06,-1.68e-06,0.0,0 STARLINK-5318,1 55304U 23010AM  24008.98278507 -.00000168  00000-0 -62605-5 0  9994,2 55304  69.9979 217.9138 0002528 268.0163  92.0707 14.98328149 54522,6950.199,96.107,573.821,570.307,0.0
55304.0,STARLINK-5318,PAYLOAD,2024-01-09 14:00:25,14.98330241,0.0002534,69.998,216.3986,270.1528,89.934,3.6863e-07,-8.9e-07,0.0,0 STARLINK-5318,1 55304U 23010AM  24009.58362371 -.00000089  00000-0  36863-6 0  9993,2 55304  69.9980 216.3986 0002534 270.1528  89.9340 14.98330241 54922,6950.192,96.107,573.818,570.296,0.0
55304.0,STARLINK-5318,PAYLOAD,2024-01-09 22:01:05,14.98330653,0.0002533,69.998,215.5571,270.448,89.6389,7.2663e-06,-6e-08,0.0,0 STARLINK-5318,1 55304U 23010AM  24009.91742316 -.00000006  00000-0  72663-5 0  9997,2 55304  69.9980 215.5571 0002533 270.4480  89.6389 14.98330653 54974,6950.191,96.107,573.816,570.295,0.0
55304.0,STARLINK-5318,PAYLOAD,2024-01-09 23:37:13,14.98330957,0.0002534,69.998,215.3889,270.7304,89.3565,1.0625e-05,3.4e-07,0.0,0 STARLINK-5318,1 55304U 23010AM  24009.98418285  .00000034  00000-0  10625-4 0  9998,2 55304  69.9980 215.3889 0002534 270.7304  89.3565 14.98330957 54670,6950.19,96.107,573.816,570.294,0.0
55304.0,STARLINK-5318,PAYLOAD,2024-01-10 23:39:14,14.98332953,0.0002558,69.9985,212.865,271.7299,88.3567,5.6376e-05,5.8e-06,0.0,0 STARLINK-5318,1 55304U 23010AM  24010.98557941  .00000580  00000-0  56376-4 0  9992,2 55304  69.9985 212.8650 0002558 271.7299  88.3567 14.98332953 54829,6950.184,96.107,573.827,570.271,0.0
55304.0,STARLINK-5318,PAYLOAD,2024-01-11 14:04:26,14.98331481,0.0002443,69.9989,211.3505,272.4463,87.6416,1.4701e-05,8.2e-07,0.0,0 STARLINK-5318,1 55304U 23010AM  24011.58642074  .00000082  00000-0  14701-4 0  9994,2 55304  69.9989 211.3505 0002443 272.4463  87.6416 14.98331481 55225,6950.188,96.107,573.751,570.355,0.0
55304.0,STARLINK-5318,PAYLOAD,2024-01-11 22:05:06,14.98331672,0.0002439,69.9991,210.5086,269.4498,90.6381,1.6125e-05,9.9e-07,0.0,0 STARLINK-5318,1 55304U 23010AM  24011.92021981  .00000099  00000-0  16125-4 0  9990,2 55304  69.9991 210.5086 0002439 269.4498  90.6381 14.98331672 55274,6950.188,96.107,573.748,570.358,0.0
55304.0,STARLINK-5318,PAYLOAD,2024-01-11 23:41:15,14.98331536,0.0002442,69.9991,210.3403,270.2655,89.8224,1.3954e-05,7.4e-07,0.0,0 STARLINK-5318,1 55304U 23010AM  24011.98697989  .00000074  00000-0  13954-4 0  9993,2 55304  69.9991 210.3403 0002442 270.2655  89.8224 14.98331536 54975,6950.188,96.107,573.75,570.356,0.0
55304.0,STARLINK-5318,PAYLOAD,2024-01-12 14:06:28,14.98327042,0.0002299,69.9997,208.8259,263.8649,96.2248,-5.2007e-05,-7.13e-06,0.0,0 STARLINK-5318,1 55304U 23010AM  24012.58782429 -.00000713  00000-0 -52007-4 0  9998,2 55304  69.9997 208.8259 0002299 263.8649  96.2248 14.98327042 55373,6950.202,96.107,573.665,570.469,0.0
55304.0,STARLINK-5318,PAYLOAD,2024-01-12 18:54:52,14.98326427,0.0002315,69.9997,208.321,262.6905,97.3991,-5.6407e-05,-7.66e-06,0.0,0 STARLINK-5318,1 55304U 23010AM  24012.78810500 -.00000766  00000-0 -56407-4 0  9998,2 55304  69.9997 208.3210 0002315 262.6905  97.3991 14.98326427 55098,6950.204,96.107,573.678,570.46,0.0
